ONEWEB-0092             
1 45437U 20020P   25211.19889957 -.00000029  00000+0 -11687-3 0  9992
2 45437  87.8804  85.2370 0001526  83.5359 276.5942 13.11416277260581
ONEWEB-0085             
1 45438U 20020Q   25211.15142371 -.00000276  00000+0 -81328-3 0  9994
2 45438  87.8810  85.2590 0001609  82.0524 278.0787 13.11418805260474
ONEWEB-0096             
1 45439U 20020R   25210.70297121  .00000186  00000+0  48893-3 0  9997
2 45439  87.8821  85.3155 0001966  81.4885 278.6466 13.11418866260392
ONEWEB-0037             
1 45440U 20020S   25211.14125604 -.00000516  00000+0 -14919-2 0  9994
2 45440  87.8824  85.1922 0001679  81.7432 278.3887 13.11416501260498
ONEWEB-0042             
1 45441U 20020T   25210.69265431 -.00000274  00000+0 -80873-3 0  9991
2 45441  87.8816  85.3269 0001750  83.2189 276.9138 13.11421313260391
ONEWEB-0098             
1 45442U 20020U   25211.14633517 -.00000461  00000+0 -13368-2 0  9999
2 45442  87.8814  85.2467 0001792  71.2562 288.8761 13.11417719260431
ONEWEB-0055             
1 45443U 20020V   25211.20568330 -.00000269  00000+0 -79449-3 0  9996
2 45443  87.8806  85.2371 0001762  77.0152 283.1173 13.11415795260429
ONEWEB-0093             
1 45444U 20020W   25211.18124709  .00000604  00000+0  16680-2 0  9990
2 45444  87.8812  85.2264 0001996  91.7021 268.4336 13.11416214260485
ONEWEB-0029             
1 45445U 20020X   25210.66313165 -.00000089  00000+0 -28803-3 0  9999
2 45445  87.8811  85.3419 0001880  81.8638 278.2703 13.11415478260381
ONEWEB-0068             
1 45446U 20020Y   25210.72318947  .00000497  00000+0  13673-2 0  9999
2 45446  87.8813  85.3187 0001921  82.1319 278.0027 13.11417112260331
ONEWEB-0046             
1 45447U 20020Z   25210.71484936  .00000543  00000+0  14957-2 0  9999
2 45447  87.8814  85.3305 0001737  87.6144 272.5182 13.11416958260345
ONEWEB-0063             
1 45448U 20020AA  25211.20144301  .00000120  00000+0  30263-3 0  9994
2 45448  87.8814  85.2313 0001559  84.0637 276.0669 13.11414653260499
ONEWEB-0019             
1 45449U 20020AB  25210.71739069  .00000540  00000+0  14865-2 0  9996
2 45449  87.8811  85.3458 0001845  77.8254 282.3080 13.11418167260278
ONEWEB-0094             
1 45450U 20020AC  25210.85627687 -.00000002  00000+0 -38221-4 0  9994
2 45450  87.9037  69.9896 0001787  86.0698 274.0638 13.17650667263868
ONEWEB-0087             
1 45451U 20020AD  25210.90628797 -.00000480  00000+0 -13907-2 0  9996
2 45451  87.8811  85.2413 0001970  84.8445 275.2907 13.11417420260348
ONEWEB-0082             
1 45452U 20020AE  25211.20822421 -.00000251  00000+0 -74520-3 0  9996
2 45452  87.8811  85.2052 0001935  78.8521 281.2824 13.11414930260480
ONEWEB-0050             
1 45453U 20020AF  25211.20851450  .00002959  00000+0  29797-3 0  9992
2 45453  87.9975 284.4376 0004751  73.8197 286.3555 14.90864687292442
